JCAT , SatcatLaunch_Tag Piece     , Type     , Name                        , PLName                      , LDate      , Parent      , SDate              , Primary, DDate              , Status Dest   , Owner       , State , Manufacturer, Bus              , Motor       , Mass     , DryMass   , TotMass  , Length, Diamete, Span   , Shape                    , ODate      , Perigee, Apogee, Inc   , OpOrbitOQU AltNames, STATUS, OBJECT_NAME             , OBJECT_ID , EPOCH                     , MEAN_MOTION, ECCENTRICITY, INCLINATION, RA_OF_ASC_NODE, ARG_OF_PERICENTER, MEAN_ANOMALY, EPHEMERIS_TYPE, CLASSIFICATION_TYPE, NORAD_CAT_ID, ELEMENT_SET_NO, REV_AT_EPOCH, BSTAR         , MEAN_MOTION_DOT, MEAN_MOTION_DDOT, LAST_UPDATED       , DATA_SOURCE               , TLE_LINE1                                                            , TLE_LINE2                                                            , N2YO_SAT_NAME              , TLE_FETCHED
40043, 40043 2014-033   2014-033AK, P        , Tigris                      , Tigrisat                    , 2014 Jun 19, S40012      , 2014 Jun 20 2108   , Earth  , -                  , O      -      , ROSAP/IQMOST, I     , ROSAP       , Cubesat 3U       , -           , 3.600    , 3.600     , 3.600    , 0.3   , 0.1    , 0.3    , Box                      , 2014 Jun 27, 610    , 697   , 97.98 , LEO/S  -           , ACTIVE, TIGRISAT                , 2014-033AK, 2025-10-03T08:51:04.825440, 14.83561621, 0.00505025  ,     97.7501,        68.0669,          195.5639,     164.4026,            0.0, U                  ,      40043.0,          999.0,      60752.0, 0.00091386486 , 7.65e-05       , 0.0             , 2025-10-04 23:19:22, planet4589.org + Celestrak, 1 40043U 14033AK  25276.36880585  .00007650  00000-0  91386-3 0  9995, 2 40043  97.7501  68.0669 0050502 195.5639 164.4026 14.83561621607527, TIGRISAT                   , YES
40044, 40044 2014-033   2014-033AL, P        , Lemur-1                     , Lemur FM01                  , 2014 Jun 19, S40012      , 2014 Jun 20 2107   , Earth  , -                  , O      -      , NANSFI      , US    , NANSFI      , Cubesat 3U       , -           , 4    ?   , 4    ?    , 4    ?   , 0.3   , 0.1    , 0.3    , Box                      , 2014 Jun 27, 611    , 697   , 97.98 , LEO/S  -           , ACTIVE, LEMUR-1                 , 2014-033AL, 2025-10-03T10:09:48.292704, 14.83599964, 0.00495254  ,     97.7546,        67.7459,          198.9122,     161.0254,            0.0, U                  ,      40044.0,          999.0,      60737.0, 0.00087587264 , 7.33e-05       , 0.0             , 2025-10-04 23:19:22, planet4589.org + Celestrak, 1 40044U 14033AL  25276.42347561  .00007330  00000-0  87587-3 0  9998, 2 40044  97.7546  67.7459 0049525 198.9122 161.0254 14.83599964607377, LEMUR 1                    , YES
40045, 40045 2014-033   2014-033AM, P        , Aerocube 6A                 , AC-6A                       , 2014 Jun 19, S40012      , 2014 Jun 20 2107   , Earth  , -                  , O      -      , AERO        , US    , AERO        , Cubesat 0.5U     , -           , 0.500?   , 0.500?    , 0.500?   , 0.050 , 0.1    , 0.1    , Box                      , 2014 Jun 26, 613    , 700   , 97.98 , LEO/S  -   CubeRAD-, ACTIVE, AEROCUBE 6A             , 2014-033AM, 2025-10-03T10:00:47.574720, 14.93845363, 0.00422857  ,     97.7033,        82.1782,          152.8272,     207.5174,            0.0, U                  ,      40045.0,          999.0,      60822.0, 0.001668389   , 0.00018007     , 0.0             , 2025-10-04 23:19:22, planet4589.org + Celestrak, 1 40045U 14033AM  25276.41721730  .00018007  00000-0  16684-2 0  9994, 2 40045  97.7033  82.1782 0042286 152.8272 207.5174 14.93845363608221, AEROCUBE 6A                , YES
40046, 40046 2014-033   2014-033AN, P        , Aerocube 6B                 , AC-6B                       , 2014 Jun 19, S40045      , 2014 Jun 22        , Earth  , -                  , O      -      , AERO        , US    , AERO        , Cubesat 0.5U     , -           , 0.500?   , 0.500?    , 0.500?   , 0.050 , 0.1    , 0.1    , Box                      , 2014 Jun 26, 613    , 700   , 97.98 , LEO/S  -   CubeRAD-, ACTIVE, AEROCUBE 6B             , 2014-033AN, 2025-10-03T10:51:16.299936, 14.950978  , 0.00407472  ,     97.7002,        81.5234,          145.9705,     214.4141,            0.0, U                  ,      40046.0,          999.0,      60833.0, 0.0015941361  , 0.00017741     , 0.0             , 2025-10-04 23:19:22, planet4589.org + Celestrak, 1 40046U 14033AN  25276.45227199  .00017741  00000-0  15941-2 0  9998, 2 40046  97.7002  81.5234 0040747 145.9705 214.4141 14.95097800608337, AEROCUBE 6B                , YES
40053, 40053 2014-034   2014-034A , P        , SPOT 7                      , SPOT 7                      , 2014 Jun 30, S40058      , 2014 Jun 30 0439   , Earth  , 2014 Dec  2        , N      -      , CNES        , F     , ADSUK       , AstroSat-500L    , AOCS        , 712      , 712    ?  , 712      , 2.7   , 2.0    , 7.0  ? , Hex cyl+3 pan            , 2014 Jul  2, 642    , 660   , 98.26 , LEO/S  -           , ACTIVE, SPOT 7                  , 2014-034A , 2025-10-03T15:55:41.442240, 14.6060093 , 0.00011501  ,     98.1002,       340.3241,           84.0029,     276.1303,            0.0, U                  ,      40053.0,          999.0,      59968.0, 0.00031604852 , 1.491e-05      , 0.0             , 2025-10-04 23:19:22, planet4589.org + Celestrak, 1 40053U 14034A   25277.48574247  .00001267  00000-0  27005-3 0  9991, 2 40053  98.1000 341.1280 0001146  84.5450 275.5881 14.60602328599808, SPOT 7                     , YES
40055, 40055 2014-034   2014-034C , P        , CanX-4                      , CanX-4                      , 2014 Jun 30, S40058      , 2014 Jun 30 0441   , Earth  , -                  , O      -      , UTIAS       , CA    , UTIAS       , GNB              , -           , 7        , 7         , 7        , 0.2   , 0.2    , 0.2    , Box+antennae             , 2014 Jul  2, 641    , 659   , 98.26 , LEO/S  -           , ACTIVE, CANX-4                  , 2014-034C , 2025-10-03T12:56:28.156992, 14.80506883, 0.00141463  ,     98.3459,       136.9768,          112.9205,     247.3501,            0.0, U                  ,      40055.0,          999.0,      60654.0, 0.00036131469 , 2.714e-05      , 0.0             , 2025-10-04 23:19:22, planet4589.org + Celestrak, 1 40055U 14034C   25277.48540588  .00002443  00000-0  32594-3 0  9990, 2 40055  98.3455 137.9606 0014173 110.1638 250.1099 14.80510968606682, NLS 7.1/CANX 4             , YES
40056, 40056 2014-034   2014-034D , P        , CanX-5                      , CanX-5                      , 2014 Jun 30, S40058      , 2014 Jun 30 0441   , Earth  , -                  , O      -      , UTIAS       , CA    , UTIAS       , GNB              , -           , 7        , 7         , 7        , 0.2   , 0.2    , 0.2    , Box+antennae             , 2014 Jul  2, 642    , 656   , 98.25 , LEO/S  -           , ACTIVE, CANX-5                  , 2014-034D , 2025-10-03T12:58:18.917472, 14.80522285, 0.001416    ,     98.3461,       137.0066,          113.3281,     246.9421,            0.0, U                  ,      40056.0,          999.0,      59735.0, 0.00035933868 , 2.7e-05        , 0.0             , 2025-10-04 23:19:22, planet4589.org + Celestrak, 1 40056U 14034D   25276.54049673  .00002700  00000-0  35934-3 0  9993, 2 40056  98.3461 137.0066 0014160 113.3281 246.9421 14.80522285597356, NLS 7.2/CANX 5             , YES
40059, 40059 2014-035   2014-035A , P        , OCO-2                       , Orbiting Carbon Observatory , 2014 Jul  2, S40060      , 2014 Jul  2 1052   , Earth  , -                  , O      -      , GSFC        , US    , OSCD        , Leostar-2        , AOCS        , 454      , 409       , 454      , 2.1   , 0.940  , 9.0  ? , Hex Cyl + 2 Pan          , 2014 Jul  4, 687    , 690   , 98.19 , LEO/S  -           , ACTIVE, OCO 2                   , 2014-035A , 2025-10-03T14:31:50.990592, 14.57131587, 0.00017514  ,     98.2092,       216.5146,           77.4134,     282.726 ,            0.0, U                  ,      40059.0,          999.0,      59868.0, 0.00038442822 , 1.688e-05      , 0.0             , 2025-10-04 23:19:22, planet4589.org + Celestrak, 1 40059U 14035A   25277.42947390  .00001439  00000-0  32919-3 0  9996, 2 40059  98.2093 217.3268 0001750  76.9147 283.2247 14.57133141598805, OCO 2                      , YES
40061, 40061 2014-036   2014-036A , P        , Gonets-M No. 18L            , Gonets-M No. 18L (P001)     , 2014 Jul  3, S40064      , 2014 Jul  3 1428   , Earth  , -                  , O      -      , GONETS      , RU    , RESH        , Strela-3M        , -           , 280      , 280       , 280      , 1.6   , 0.8    , 7.0  ? , Cyl + Ant                , 2014 Jul  5, 1479   , 1510  , 82.52 , LEO/I  -           , ACTIVE, GONETS-M 8              , 2014-036A , 2025-10-03T14:27:36.896832, 12.42974491, 0.00298508  ,     82.5052,       106.9816,          349.7278,      10.3188,            0.0, U                  ,      40061.0,          999.0,      51057.0, -0.0021288421 , -2.86e-06      , 0.0             , 2025-10-04 23:19:22, planet4589.org + Celestrak, 1 40061U 14036A   25277.48791391  .00000080  00000-0  50609-3 0  9991, 2 40061  82.5050 106.4314 0029757 348.1471  11.8905 12.42974695510683, GONETS-M 8                 , YES
